{{Infobox Planet  
| name = 401 Ottilia
| image = 
| caption = 
| discovery=yes | physical_characteristics = yes | bgcolour=#FFFFC0
| discovery_ref = 
| discoverer = [[马克斯·沃夫|马克斯·沃夫]]
| discovery_site = [[海德堡|海德堡]]
| discovered =  1895年3月16日
| mp_name = 401
| alt_names = 1895 BT
| named_after = Ottilia
| mp_category=[[小行星带|外主带小行星]]（[[原神星族|原神星族]]）
| orbit_ref = <ref>[http://ssd.jpl.nasa.gov/sbdb.cgi?sstr=401 401 Ottilia (1895 BT)]</ref>
| epoch = 2011年8月27日
| semimajor= 3.346091530034227AU
| perihelion=3.216545945037409AU
| aphelion=3.475637115031044[[天文单位|AU]]
| eccentricity =0.03871549353447969	
| period =2235.656886733568[[日|地球日]]<br>6.12[[年|地球年]] 
| inclination=5.971411606556033[[角度|°]]
| asc_node=36.17747348256296°	
| arg_peri=294.2871308826994°
| mean_anomaly=243.1563070913355°
| avg_speed=
 | dimensions=99.12千米
 | mass=
 | density=
 | surface_grav=
 | escape_velocity=
 | rotation=6.049小时
 | spectral_type=
 | magnitude=
 | abs_magnitude=9.10
 | albedo=0.0412	
 | single_temperature=
}}
'''小行星401'''（'''401 Ottilia'''），是由[[德国|德国]][[天文学家|天文学家]][[马克斯·沃夫|马克斯·沃夫]]于1895年3月16日在德国[[海德堡|海德堡]][[王座山天文台|王座山天文台]]发现的[[小行星带|主带]][[小行星|小行星]]。它是[[原神星族|原神星族]]小行星的一员。

小行星401以德国民间传说的人物Ottilia命名。

== 参考资料 ==
{{Reflist}}

{{Minor Planet Number|(400)[[小行星400|小行星400]]|(402)[[小行星402|小行星402]]}}

[[Category:小行星带天体|Category:小行星带天体]]
[[Category:1895年发现的小行星|Category:1895年发现的小行星]]
[[Category:C-型小行星|Category:C-型小行星]]